IRIDIUM 921 [-]         
1 24873U 97034E   23257.45670089  .00017969  00000+0  71996-3 0  9991
2 24873  86.3833  63.3297 0004489 205.1343 154.9685 15.24915293433111
IRIDIUM 26 [-]          
1 24903U 97043A   23257.44866738  .00000695  00000+0  23272-3 0  9994
2 24903  86.4007  19.8367 0002292  90.2794 269.8665 14.35990991365089
IRIDIUM 22 [-]          
1 24907U 97043E   23257.43163172  .00000575  00000+0  19549-3 0  9998
2 24907  86.4005  22.8598 0002102  94.3970 265.7467 14.34901483364702
DUMMY MASS 1 [-]        
1 24925U 97048A   23257.43403542  .00000709  00000+0  78405-4 0  9997
2 24925  86.3298  71.8045 0004616 255.2800 104.7913 14.85816399410042
DUMMY MASS 2 [-]        
1 24926U 97048B   23256.88711115  .00000679  00000+0  75380-4 0  9999
2 24926  86.3297  73.5533 0005390 274.0600  86.0008 14.85577494409517
IRIDIUM 29 [-]          
1 24944U 97051A   23256.89488289  .00000605  00000+0  20426-3 0  9996
2 24944  86.3937  53.0825 0002074  98.0085 262.1347 14.35363365361102
IRIDIUM 33 [-]          
1 24946U 97051C   23257.43865330  .00000479  00000+0  16418-3 0  9990
2 24946  86.3854  52.1341 0008557  26.4215 333.7415 14.34105025360754
IRIDIUM 28 [-]          
1 24948U 97051E   23257.42920823  .00000709  00000+0  23601-3 0  9998
2 24948  86.3948  50.7423 0002293  82.2544 277.8913 14.36283873361764
